{
    "links": {
        "self": "http://www.neowsapp.com/rest/v1/neo/3745830?api_key=iIulBulltgU6a56xZRHN4H3l9WmuAYTsLGpBGhQ2"
    },
    "id": "3745830",
    "neo_reference_id": "3745830",
    "name": "(2016 EH55)",
    "designation": "2016 EH55",
    "nasa_jpl_url": "http://ssd.jpl.nasa.gov/sbdb.cgi?sstr=3745830",
    "absolute_magnitude_h": 24.6,
    "estimated_diameter": {
        "kilometers": {
            "estimated_diameter_min": 0.0319561887,
            "estimated_diameter_max": 0.0714562102
        },
        "meters": {
            "estimated_diameter_min": 31.9561886721,
            "estimated_diameter_max": 71.4562101727
        },
        "miles": {
            "estimated_diameter_min": 0.0198566489,
            "estimated_diameter_max": 0.0444008168
        },
        "feet": {
            "estimated_diameter_min": 104.8431420431,
            "estimated_diameter_max": 234.436392583
        }
    },
    "is_potentially_hazardous_asteroid": false,
    "close_approach_data": [
        {
            "close_approach_date": "1985-09-28",
            "close_approach_date_full": "1985-Sep-28 16:19",
            "epoch_date_close_approach": 496772340000,
            "relative_velocity": {
                "kilometers_per_second": "26.6728293918",
                "kilometers_per_hour": "96022.1858106316",
                "miles_per_hour": "59664.4520666116"
            },
            "miss_distance": {
                "astronomical": "0.468241122",
                "lunar": "182.145796458",
                "kilometers": "70047874.49761014",
                "miles": "43525730.897854332"
            },
            "orbiting_body": "Earth"
        },
        {
            "close_approach_date": "2016-02-24",
            "close_approach_date_full": "2016-Feb-24 18:48",
            "epoch_date_close_approach": 1456339680000,
            "relative_velocity": {
                "kilometers_per_second": "13.7322850983",
                "kilometers_per_hour": "49436.226353885",
                "miles_per_hour": "30717.7485363904"
            },
            "miss_distance": {
                "astronomical": "0.0345743038",
                "lunar": "13.4494041782",
                "kilometers": "5172242.205212906",
                "miles": "3213882.2766178628"
            },
            "orbiting_body": "Earth"
        }
    ],
    "orbital_data": {
        "orbit_id": "5",
        "orbit_determination_date": "2017-04-06 08:27:44",
        "first_observation_date": "2016-03-06",
        "last_observation_date": "2016-03-10",
        "data_arc_in_days": 4,
        "observations_used": 17,
        "orbit_uncertainty": "9",
        "minimum_orbit_intersection": ".00353061",
        "jupiter_tisserand_invariant": "3.801",
        "epoch_osculation": "2457455.5",
        "eccentricity": ".5557238081971742",
        "semi_major_axis": "1.85202673013785",
        "inclination": "1.097217692619103",
        "ascending_node_longitude": "162.8013580572461",
        "orbital_period": "920.5964644580629",
        "perihelion_distance": ".822811382782684",
        "perihelion_argument": "291.156553766138",
        "aphelion_distance": "2.881242077493016",
        "perihelion_time": "2457401.920413279434",
        "mean_anomaly": "20.95234118757844",
        "mean_motion": ".3910508174848629",
        "equinox": "J2000",
        "orbit_class": {
            "orbit_class_type": "APO",
            "orbit_class_description": "Near-Earth asteroid orbits which cross the Earth’s orbit similar to that of 1862 Apollo",
            "orbit_class_range": "a (semi-major axis) > 1.0 AU; q (perihelion) < 1.017 AU"
        }
    },
    "is_sentry_object": false
}